CCSDS_OMM_VERS = 2.0
CREATION_DATE  = 
ORIGINATOR     = 

OBJECT_NAME    = SL-4 R/B
OBJECT_ID      = 2014-021B
CENTER_NAME    = EARTH
REF_FRAME      = TEME
TIME_SYSTEM    = UTC
MEAN_ELEMENT_THEORY = SGP/SGP4

EPOCH          = 2026-03-03T04:48:55.450656
MEAN_MOTION    = 15.38921077
ECCENTRICITY   = .00980977
INCLINATION    = 51.6082
RA_OF_ASC_NODE = 8.9286
ARG_OF_PERICENTER = 79.3446
MEAN_ANOMALY   = 281.8567

EPHEMERIS_TYPE = 0
CLASSIFICATION_TYPE = U
NORAD_CAT_ID   = 39679
ELEMENT_SET_NO = 999
REV_AT_EPOCH   = 65527
BSTAR          = .41513473E-3
MEAN_MOTION_DOT = .18805E-3
MEAN_MOTION_DDOT = 0

CCSDS_OMM_VERS = 2.0
CREATION_DATE  = 
ORIGINATOR     = 

OBJECT_NAME    = ALOS-2
OBJECT_ID      = 2014-029A
CENTER_NAME    = EARTH
REF_FRAME      = TEME
TIME_SYSTEM    = UTC
MEAN_ELEMENT_THEORY = SGP/SGP4

EPOCH          = 2026-03-03T20:02:09.919392
MEAN_MOTION    = 14.79474129
ECCENTRICITY   = .0001516
INCLINATION    = 97.9202
RA_OF_ASC_NODE = 161.5170
ARG_OF_PERICENTER = 100.1018
MEAN_ANOMALY   = 260.0365

EPHEMERIS_TYPE = 0
CLASSIFICATION_TYPE = U
NORAD_CAT_ID   = 39766
ELEMENT_SET_NO = 999
REV_AT_EPOCH   = 63600
BSTAR          = .22812E-3
MEAN_MOTION_DOT = .1653E-4
MEAN_MOTION_DDOT = 0

CCSDS_OMM_VERS = 2.0
CREATION_DATE  = 
ORIGINATOR     = 

OBJECT_NAME    = YAOGAN-29
OBJECT_ID      = 2015-069A
CENTER_NAME    = EARTH
REF_FRAME      = TEME
TIME_SYSTEM    = UTC
MEAN_ELEMENT_THEORY = SGP/SGP4

EPOCH          = 2026-03-03T20:33:57.539808
MEAN_MOTION    = 14.82987641
ECCENTRICITY   = .0002267
INCLINATION    = 98.0150
RA_OF_ASC_NODE = 91.2705
ARG_OF_PERICENTER = 46.4335
MEAN_ANOMALY   = 313.7066

EPHEMERIS_TYPE = 0
CLASSIFICATION_TYPE = U
NORAD_CAT_ID   = 41038
ELEMENT_SET_NO = 999
REV_AT_EPOCH   = 55501
BSTAR          = .55811E-4
MEAN_MOTION_DOT = .399E-5
MEAN_MOTION_DDOT = 0

CCSDS_OMM_VERS = 2.0
CREATION_DATE  = 
ORIGINATOR     = 

OBJECT_NAME    = ASTRO-H (HITOMI)
OBJECT_ID      = 2016-012A
CENTER_NAME    = EARTH
REF_FRAME      = TEME
TIME_SYSTEM    = UTC
MEAN_ELEMENT_THEORY = SGP/SGP4

EPOCH          = 2026-03-03T06:54:54.077760
MEAN_MOTION    = 15.09949072
ECCENTRICITY   = .00100156
INCLINATION    = 31.0005
RA_OF_ASC_NODE = 37.8551
ARG_OF_PERICENTER = 267.5295
MEAN_ANOMALY   = 92.4196

EPHEMERIS_TYPE = 0
CLASSIFICATION_TYPE = U
NORAD_CAT_ID   = 41337
ELEMENT_SET_NO = 999
REV_AT_EPOCH   = 55126
BSTAR          = .26589315E-3
MEAN_MOTION_DOT = .452E-4
MEAN_MOTION_DDOT = 0

CCSDS_OMM_VERS = 2.0
CREATION_DATE  = 
ORIGINATOR     = 

OBJECT_NAME    = HXMT (HUIYAN)
OBJECT_ID      = 2017-034A
CENTER_NAME    = EARTH
REF_FRAME      = TEME
TIME_SYSTEM    = UTC
MEAN_ELEMENT_THEORY = SGP/SGP4

EPOCH          = 2026-03-03T20:28:56.313120
MEAN_MOTION    = 15.17370185
ECCENTRICITY   = .0032304
INCLINATION    = 43.0149
RA_OF_ASC_NODE = 49.1173
ARG_OF_PERICENTER = 200.1957
MEAN_ANOMALY   = 159.7615

EPHEMERIS_TYPE = 0
CLASSIFICATION_TYPE = U
NORAD_CAT_ID   = 42758
ELEMENT_SET_NO = 999
REV_AT_EPOCH   = 48165
BSTAR          = .36918E-3
MEAN_MOTION_DOT = .7373E-4
MEAN_MOTION_DDOT = 0

CCSDS_OMM_VERS = 2.0
CREATION_DATE  = 
ORIGINATOR     = 

OBJECT_NAME    = SAOCOM 1A
OBJECT_ID      = 2018-076A
CENTER_NAME    = EARTH
REF_FRAME      = TEME
TIME_SYSTEM    = UTC
MEAN_ELEMENT_THEORY = SGP/SGP4

EPOCH          = 2026-03-03T19:40:12.067104
MEAN_MOTION    = 14.82164027
ECCENTRICITY   = .000131
INCLINATION    = 97.8883
RA_OF_ASC_NODE = 251.0750
ARG_OF_PERICENTER = 82.9258
MEAN_ANOMALY   = 277.2104

EPHEMERIS_TYPE = 0
CLASSIFICATION_TYPE = U
NORAD_CAT_ID   = 43641
ELEMENT_SET_NO = 999
REV_AT_EPOCH   = 40049
BSTAR          = .17441E-3
MEAN_MOTION_DOT = .1337E-4
MEAN_MOTION_DDOT = 0

CCSDS_OMM_VERS = 2.0
CREATION_DATE  = 
ORIGINATOR     = 

OBJECT_NAME    = H-2A R/B
OBJECT_ID      = 2018-084L
CENTER_NAME    = EARTH
REF_FRAME      = TEME
TIME_SYSTEM    = UTC
MEAN_ELEMENT_THEORY = SGP/SGP4

EPOCH          = 2026-03-03T13:33:31.413024
MEAN_MOTION    = 15.41030375
ECCENTRICITY   = .0025829
INCLINATION    = 98.8736
RA_OF_ASC_NODE = 278.6455
ARG_OF_PERICENTER = 46.0108
MEAN_ANOMALY   = 314.3257

EPHEMERIS_TYPE = 0
CLASSIFICATION_TYPE = U
NORAD_CAT_ID   = 43682
ELEMENT_SET_NO = 999
REV_AT_EPOCH   = 40483
BSTAR          = .61481E-3
MEAN_MOTION_DOT = .25622E-3
MEAN_MOTION_DDOT = 0

CCSDS_OMM_VERS = 2.0
CREATION_DATE  = 
ORIGINATOR     = 

OBJECT_NAME    = SAOCOM 1B
OBJECT_ID      = 2020-059A
CENTER_NAME    = EARTH
REF_FRAME      = TEME
TIME_SYSTEM    = UTC
MEAN_ELEMENT_THEORY = SGP/SGP4

EPOCH          = 2026-03-03T20:25:09.780960
MEAN_MOTION    = 14.82164432
ECCENTRICITY   = .0001445
INCLINATION    = 97.8882
RA_OF_ASC_NODE = 250.2038
ARG_OF_PERICENTER = 80.3099
MEAN_ANOMALY   = 279.8277

EPHEMERIS_TYPE = 0
CLASSIFICATION_TYPE = U
NORAD_CAT_ID   = 46265
ELEMENT_SET_NO = 999
REV_AT_EPOCH   = 29788
BSTAR          = .46652E-4
MEAN_MOTION_DOT = .319E-5
MEAN_MOTION_DDOT = 0

CCSDS_OMM_VERS = 2.0
CREATION_DATE  = 
ORIGINATOR     = 

OBJECT_NAME    = CSS (TIANHE)
OBJECT_ID      = 2021-035A
CENTER_NAME    = EARTH
REF_FRAME      = TEME
TIME_SYSTEM    = UTC
MEAN_ELEMENT_THEORY = SGP/SGP4

EPOCH          = 2026-03-03T19:51:54.734112
MEAN_MOTION    = 15.60361861
ECCENTRICITY   = .0006655
INCLINATION    = 41.4653
RA_OF_ASC_NODE = 243.8214
ARG_OF_PERICENTER = 237.2014
MEAN_ANOMALY   = 122.8183

EPHEMERIS_TYPE = 0
CLASSIFICATION_TYPE = U
NORAD_CAT_ID   = 48274
ELEMENT_SET_NO = 999
REV_AT_EPOCH   = 27669
BSTAR          = .41863E-3
MEAN_MOTION_DOT = .35156E-3
MEAN_MOTION_DDOT = 0

CCSDS_OMM_VERS = 2.0
CREATION_DATE  = 
ORIGINATOR     = 

OBJECT_NAME    = COSMOS 2550
OBJECT_ID      = 2021-056A
CENTER_NAME    = EARTH
REF_FRAME      = TEME
TIME_SYSTEM    = UTC
MEAN_ELEMENT_THEORY = SGP/SGP4

EPOCH          = 2026-03-03T20:15:44.768160
MEAN_MOTION    = 15.33842321
ECCENTRICITY   = .0008329
INCLINATION    = 67.1444
RA_OF_ASC_NODE = 58.6135
ARG_OF_PERICENTER = 269.0013
MEAN_ANOMALY   = 91.0187

EPHEMERIS_TYPE = 0
CLASSIFICATION_TYPE = U
NORAD_CAT_ID   = 48865
ELEMENT_SET_NO = 999
REV_AT_EPOCH   = 26256
BSTAR          = .62619E-7
MEAN_MOTION_DOT = -.19E-5
MEAN_MOTION_DDOT = 0

CCSDS_OMM_VERS = 2.0
CREATION_DATE  = 
ORIGINATOR     = 

OBJECT_NAME    = CZ-2C R/B
OBJECT_ID      = 2022-058K
CENTER_NAME    = EARTH
REF_FRAME      = TEME
TIME_SYSTEM    = UTC
MEAN_ELEMENT_THEORY = SGP/SGP4

EPOCH          = 2026-03-03T05:03:18.537408
MEAN_MOTION    = 15.53679339
ECCENTRICITY   = .00421804
INCLINATION    = 50.1905
RA_OF_ASC_NODE = 351.6043
ARG_OF_PERICENTER = 173.2115
MEAN_ANOMALY   = 186.9436

EPHEMERIS_TYPE = 0
CLASSIFICATION_TYPE = U
NORAD_CAT_ID   = 52794
ELEMENT_SET_NO = 999
REV_AT_EPOCH   = 20912
BSTAR          = .53677883E-3
MEAN_MOTION_DOT = .36042E-3
MEAN_MOTION_DDOT = 0

CCSDS_OMM_VERS = 2.0
CREATION_DATE  = 
ORIGINATOR     = 

OBJECT_NAME    = CZ-2C R/B
OBJECT_ID      = 2022-132E
CENTER_NAME    = EARTH
REF_FRAME      = TEME
TIME_SYSTEM    = UTC
MEAN_ELEMENT_THEORY = SGP/SGP4

EPOCH          = 2026-03-03T12:57:48.396672
MEAN_MOTION    = 15.61225239
ECCENTRICITY   = .0020775
INCLINATION    = 97.2955
RA_OF_ASC_NODE = 65.6729
ARG_OF_PERICENTER = 110.7693
MEAN_ANOMALY   = 249.5793

EPHEMERIS_TYPE = 0
CLASSIFICATION_TYPE = U
NORAD_CAT_ID   = 54039
ELEMENT_SET_NO = 999
REV_AT_EPOCH   = 18941
BSTAR          = .62562E-3
MEAN_MOTION_DOT = .53653E-3
MEAN_MOTION_DDOT = 0

